*******************************************************************************
Ephemeris / WWW_USER Mon Mar 10 06:59:32 2025 Pasadena, USA      / Horizons    
*******************************************************************************
Target body name: (2019 AU)                       {source: JPL#11}
Center body name: Earth (399)                     {source: DE441}
Center-site name: Mauna Kea
*******************************************************************************
Start time      : A.D. 2018-Dec-31 04:03:00.0000 UT      
Stop  time      : A.D. 2018-Dec-31 16:46:00.0000 UT      
Step-size       : 1 minutes
*******************************************************************************
Target pole/equ : undefined
Target radii    : undefined                                                    
Center geodetic : 204.5278, 19.8260847, 4.21024   {E-lon(deg),Lat(deg),Alt(km)}
Center cylindric: 204.5278, 6006.35451, 2151.0229 {E-lon(deg),Dxy(km),Dz(km)}
Center pole/equ : ITRF93                          {East-longitude positive}
Center radii    : 6378.137, 6378.137, 6356.752 km {Equator_a, b, pole_c}       
Target primary  : Sun
Vis. interferer : MOON (R_eq= 1737.400) km        {source: DE441}
Rel. light bend : Sun                             {source: DE441}
Rel. lght bnd GM: 1.3271E+11 km^3/s^2                                          
Small-body perts: Yes                             {source: SB441-N16}
Atmos refraction: NO (AIRLESS)
RA format       : HMS
Time format     : CAL 
Calendar mode   : Mixed Julian/Gregorian
RTS-only print  : NO       
EOP file        : eop.250307.p250603                                           
EOP coverage    : DATA-BASED 1962-JAN-20 TO 2025-MAR-07. PREDICTS-> 2025-JUN-02
Units conversion: 1 au= 149597870.700 km, c= 299792.458 km/s, 1 day= 86400.0 s 
Table cut-offs 1: Elevation (-90.0deg=NO ),Airmass (>38.000=NO), Daylight (YES)
Table cut-offs 2: Solar elongation (  0.0,180.0=NO ),Local Hour Angle( 0.0=NO )
Table cut-offs 3: RA/DEC angular rate (     0.0=NO )                           
*******************************************************************************
Initial IAU76/J2000 heliocentric ecliptic osculating elements (au, days, deg.):
  EPOCH=  2458490.5 ! 2019-Jan-07.00 (TDB)         Residual RMS= .17143        
   EC= .1028488096127525   QR= .9927870416208908   TP= 2458466.0562707144      
   OM= 109.6543146265929   W=  330.7265060973358   IN= 5.020660041219873       
  Equivalent ICRF heliocentric cartesian coordinates (au, au/d):
   X=-2.730606646751524E-01  Y= 8.866895536052930E-01  Z= 3.780071563225811E-01
  VX=-1.742089442644723E-02 VY=-4.449382429672076E-03 VZ=-2.237797348809624E-04
Asteroid physical parameters (km, seconds, rotational period in hours):        
   GM= n.a.                RAD= n.a.               ROTPER= n.a.                
   H= 26.7                 G= .150                 B-V= n.a.                   
                           ALBEDO= n.a.            STYP= n.a.                  
*******************************************************************************
 Date__(UT)__HR:MN     R.A._________(ICRF)_________DEC
******************************************************
$$SOE
 2018-Dec-31 10:12     05 16 52.825367 -23 13 42.63533
 2018-Dec-31 10:13     05 16 52.975721 -23 13 33.05838
 2018-Dec-31 10:14     05 16 53.126238 -23 13 23.47828
 2018-Dec-31 10:15     05 16 53.276920 -23 13 13.89502
 2018-Dec-31 10:16     05 16 53.427768 -23 13 04.30862
 2018-Dec-31 10:17     05 16 53.578784 -23 12 54.71908
 2018-Dec-31 10:18     05 16 53.729972 -23 12 45.12639
 2018-Dec-31 10:19     05 16 53.881332 -23 12 35.53058
 2018-Dec-31 10:20     05 16 54.032868 -23 12 25.93163
 2018-Dec-31 10:21     05 16 54.184581 -23 12 16.32957
 2018-Dec-31 10:22     05 16 54.336473 -23 12 06.72438
 2018-Dec-31 10:23     05 16 54.488547 -23 11 57.11608
 2018-Dec-31 10:24     05 16 54.640804 -23 11 47.50467
 2018-Dec-31 10:25     05 16 54.793247 -23 11 37.89015
 2018-Dec-31 10:26     05 16 54.945878 -23 11 28.27254
 2018-Dec-31 10:27     05 16 55.098698 -23 11 18.65183
 2018-Dec-31 10:28     05 16 55.251710 -23 11 09.02804
 2018-Dec-31 10:29     05 16 55.404917 -23 10 59.40116
 2018-Dec-31 10:30     05 16 55.558319 -23 10 49.77120
 2018-Dec-31 10:31     05 16 55.711920 -23 10 40.13817
 2018-Dec-31 10:32     05 16 55.865720 -23 10 30.50207
 2018-Dec-31 10:33     05 16 56.019724 -23 10 20.86291
 2018-Dec-31 10:34     05 16 56.173931 -23 10 11.22069
 2018-Dec-31 10:35     05 16 56.328345 -23 10 01.57542
 2018-Dec-31 10:36     05 16 56.482967 -23 09 51.92710
 2018-Dec-31 10:37     05 16 56.637800 -23 09 42.27574
 2018-Dec-31 10:38     05 16 56.792846 -23 09 32.62134
 2018-Dec-31 10:39     05 16 56.948106 -23 09 22.96392
 2018-Dec-31 10:40     05 16 57.103583 -23 09 13.30347
 2018-Dec-31 10:41     05 16 57.259279 -23 09 03.64001
 2018-Dec-31 10:42     05 16 57.415195 -23 08 53.97353
 2018-Dec-31 10:43     05 16 57.571334 -23 08 44.30404
 2018-Dec-31 10:44     05 16 57.727698 -23 08 34.63156
 2018-Dec-31 10:45     05 16 57.884289 -23 08 24.95608
 2018-Dec-31 10:46     05 16 58.041109 -23 08 15.27761
 2018-Dec-31 10:47     05 16 58.198160 -23 08 05.59616
 2018-Dec-31 10:48     05 16 58.355443 -23 07 55.91173
 2018-Dec-31 10:49     05 16 58.512962 -23 07 46.22433
 2018-Dec-31 10:50     05 16 58.670717 -23 07 36.53396
 2018-Dec-31 10:51     05 16 58.828711 -23 07 26.84064
 2018-Dec-31 10:52     05 16 58.986946 -23 07 17.14436
 2018-Dec-31 10:53     05 16 59.145424 -23 07 07.44514
 2018-Dec-31 10:54     05 16 59.304147 -23 06 57.74298
 2018-Dec-31 10:55     05 16 59.463116 -23 06 48.03789
 2018-Dec-31 10:56     05 16 59.622335 -23 06 38.32987
 2018-Dec-31 10:57     05 16 59.781804 -23 06 28.61893
 2018-Dec-31 10:58     05 16 59.941526 -23 06 18.90507
 2018-Dec-31 10:59     05 17 00.101502 -23 06 09.18831
 2018-Dec-31 11:00     05 17 00.261736 -23 05 59.46865
 2018-Dec-31 11:01     05 17 00.422227 -23 05 49.74609
 2018-Dec-31 11:02     05 17 00.582980 -23 05 40.02065
 2018-Dec-31 11:03     05 17 00.743994 -23 05 30.29232
 2018-Dec-31 11:04     05 17 00.905274 -23 05 20.56113
 2018-Dec-31 11:05     05 17 01.066819 -23 05 10.82706
 2018-Dec-31 11:06     05 17 01.228633 -23 05 01.09013
 2018-Dec-31 11:07     05 17 01.390717 -23 04 51.35036
 2018-Dec-31 11:08     05 17 01.553073 -23 04 41.60773
 2018-Dec-31 11:09     05 17 01.715703 -23 04 31.86227
 2018-Dec-31 11:10     05 17 01.878609 -23 04 22.11397
 2018-Dec-31 11:11     05 17 02.041792 -23 04 12.36285
 2018-Dec-31 11:12     05 17 02.205256 -23 04 02.60891
 2018-Dec-31 11:13     05 17 02.369001 -23 03 52.85216
 2018-Dec-31 11:14     05 17 02.533029 -23 03 43.09261
 2018-Dec-31 11:15     05 17 02.697343 -23 03 33.33025
 2018-Dec-31 11:16     05 17 02.861944 -23 03 23.56512
 2018-Dec-31 11:17     05 17 03.026834 -23 03 13.79719
 2018-Dec-31 11:18     05 17 03.192015 -23 03 04.02650
 2018-Dec-31 11:19     05 17 03.357489 -23 02 54.25304
 2018-Dec-31 11:20     05 17 03.523257 -23 02 44.47681
 2018-Dec-31 11:21     05 17 03.689322 -23 02 34.69784
 2018-Dec-31 11:22     05 17 03.855685 -23 02 24.91612
 2018-Dec-31 11:23     05 17 04.022348 -23 02 15.13166
 2018-Dec-31 11:24     05 17 04.189314 -23 02 05.34448
 2018-Dec-31 11:25     05 17 04.356583 -23 01 55.55457
 2018-Dec-31 11:26     05 17 04.524157 -23 01 45.76195
 2018-Dec-31 11:27     05 17 04.692039 -23 01 35.96662
 2018-Dec-31 11:28     05 17 04.860231 -23 01 26.16860
 2018-Dec-31 11:29     05 17 05.028733 -23 01 16.36788
 2018-Dec-31 11:30     05 17 05.197548 -23 01 06.56448
 2018-Dec-31 11:31     05 17 05.366678 -23 00 56.75841
 2018-Dec-31 11:32     05 17 05.536124 -23 00 46.94967
 2018-Dec-31 11:33     05 17 05.705888 -23 00 37.13827
 2018-Dec-31 11:34     05 17 05.875972 -23 00 27.32422
 2018-Dec-31 11:35     05 17 06.046378 -23 00 17.50753
 2018-Dec-31 11:36     05 17 06.217107 -23 00 07.68820
 2018-Dec-31 11:37     05 17 06.388162 -22 59 57.86625
 2018-Dec-31 11:38     05 17 06.559543 -22 59 48.04168
 2018-Dec-31 11:39     05 17 06.731253 -22 59 38.21450
 2018-Dec-31 11:40     05 17 06.903294 -22 59 28.38471
 2018-Dec-31 11:41     05 17 07.075666 -22 59 18.55234
 2018-Dec-31 11:42     05 17 07.248372 -22 59 08.71737
 2018-Dec-31 11:43     05 17 07.421414 -22 58 58.87983
 2018-Dec-31 11:44     05 17 07.594793 -22 58 49.03973
 2018-Dec-31 11:45     05 17 07.768511 -22 58 39.19706
 2018-Dec-31 11:46     05 17 07.942570 -22 58 29.35184
 2018-Dec-31 11:47     05 17 08.116971 -22 58 19.50408
 2018-Dec-31 11:48     05 17 08.291716 -22 58 09.65378
 2018-Dec-31 11:49     05 17 08.466807 -22 57 59.80096
 2018-Dec-31 11:50     05 17 08.642245 -22 57 49.94562
 2018-Dec-31 11:51     05 17 08.818032 -22 57 40.08777
 2018-Dec-31 11:52     05 17 08.994169 -22 57 30.22743
 2018-Dec-31 11:53     05 17 09.170659 -22 57 20.36459
 2018-Dec-31 11:54     05 17 09.347503 -22 57 10.49927
 2018-Dec-31 11:55     05 17 09.524703 -22 57 00.63147
 2018-Dec-31 11:56     05 17 09.702259 -22 56 50.76121
 2018-Dec-31 11:57     05 17 09.880175 -22 56 40.88850
 2018-Dec-31 11:58     05 17 10.058450 -22 56 31.01334
 2018-Dec-31 11:59     05 17 10.237088 -22 56 21.13574
 2018-Dec-31 12:00     05 17 10.416090 -22 56 11.25571
 2018-Dec-31 12:01     05 17 10.595456 -22 56 01.37327
 2018-Dec-31 12:02     05 17 10.775190 -22 55 51.48841
 2018-Dec-31 12:03     05 17 10.955292 -22 55 41.60115
 2018-Dec-31 12:04     05 17 11.135764 -22 55 31.71150
 2018-Dec-31 12:05     05 17 11.316607 -22 55 21.81946
 2018-Dec-31 12:06     05 17 11.497823 -22 55 11.92505
 2018-Dec-31 12:07     05 17 11.679414 -22 55 02.02828
 2018-Dec-31 12:08  m  05 17 11.861381 -22 54 52.12915
 2018-Dec-31 12:09  m  05 17 12.043726 -22 54 42.22767
 2018-Dec-31 12:10  m  05 17 12.226450 -22 54 32.32386
 2018-Dec-31 12:11  m  05 17 12.409555 -22 54 22.41772
 2018-Dec-31 12:12  m  05 17 12.593042 -22 54 12.50926
 2018-Dec-31 12:13  m  05 17 12.776913 -22 54 02.59849
 2018-Dec-31 12:14  m  05 17 12.961169 -22 53 52.68542
